{
  "type": "FeatureCollection",
  "features": [
    {
      "type": "Feature",
      "properties": {
        "norad_id": 15362,
        "name": "NOVA 3",
        "group": "nnss",
        "lat": 8.215353036585823,
        "lon": -99.37409834669812,
        "alt_km": 1192.8890975913391,
        "timestamp": "2025-12-18T23:35:49.328723+00:00",
        "meta_object_name": "NOVA 3",
        "meta_object_id": "1984-110A",
        "meta_epoch": "2025-12-18T11:53:45.723840",
        "meta_mean_motion": 13.23045138,
        "meta_eccentricity": 0.0030097,
        "meta_inclination": 90.1223,
        "meta_ra_of_asc_node": 80.6025,
        "meta_arg_of_pericenter": 315.4521,
        "meta_mean_anomaly": 55.634,
        "meta_ephemeris_type": 0,
        "meta_classification_type": "U",
        "meta_norad_cat_id": 15362,
        "meta_element_set_no": 999,
        "meta_rev_at_epoch": 98775,
        "meta_bstar": 0.00012274902,
        "meta_mean_motion_dot": 6e-07,
        "meta_mean_motion_ddot": 0,
        "tle_line1": "1 15362U 84110A   25352.49566810  .00000060  00000+0  12275-3 0  9992",
        "tle_line2": "2 15362  90.1223  80.6025 0030097 315.4521  55.6340 13.23045138987756"
      },
      "geometry": {
        "type": "Point",
        "coordinates": [
          -99.37409834669812,
          8.215353036585823
        ]
      }
    },
    {
      "type": "Feature",
      "properties": {
        "norad_id": 15935,
        "name": "OSCAR 30",
        "group": "nnss",
        "lat": -7.004748802156157,
        "lon": -80.0711703014005,
        "alt_km": 1190.4224642548706,
        "timestamp": "2025-12-18T23:35:49.328734+00:00",
        "meta_object_name": "OSCAR 30",
        "meta_object_id": "1985-066A",
        "meta_epoch": "2025-12-18T13:45:01.018944",
        "meta_mean_motion": 13.36079187,
        "meta_eccentricity": 0.01692745,
        "meta_inclination": 90.1656,
        "meta_ra_of_asc_node": 99.9425,
        "meta_arg_of_pericenter": 67.6288,
        "meta_mean_anomaly": 305.3301,
        "meta_ephemeris_type": 0,
        "meta_classification_type": "U",
        "meta_norad_cat_id": 15935,
        "meta_element_set_no": 999,
        "meta_rev_at_epoch": 96531,
        "meta_bstar": 0.00011911364,
        "meta_mean_motion_dot": 7.6e-07,
        "meta_mean_motion_ddot": 0,
        "tle_line1": "1 15935U 85066A   25352.57292846  .00000076  00000+0  11911-3 0  9996",
        "tle_line2": "2 15935  90.1656  99.9425 0169274  67.6288 305.3301 13.36079187965310"
      },
      "geometry": {
        "type": "Point",
        "coordinates": [
          -80.0711703014005,
          -7.004748802156157
        ]
      }
    },
    {
      "type": "Feature",
      "properties": {
        "norad_id": 15936,
        "name": "OSCAR 24",
        "group": "nnss",
        "lat": -77.22565873036636,
        "lon": -88.37507934822086,
        "alt_km": 1259.3922429715021,
        "timestamp": "2025-12-18T23:35:49.328745+00:00",
        "meta_object_name": "OSCAR 24",
        "meta_object_id": "1985-066B",
        "meta_epoch": "2025-12-18T13:23:15.852768",
        "meta_mean_motion": 13.35936524,
        "meta_eccentricity": 0.01703906,
        "meta_inclination": 90.1792,
        "meta_ra_of_asc_node": 92.4083,
        "meta_arg_of_pericenter": 74.1055,
        "meta_mean_anomaly": 298.5962,
        "meta_ephemeris_type": 0,
        "meta_classification_type": "U",
        "meta_norad_cat_id": 15936,
        "meta_element_set_no": 999,
        "meta_rev_at_epoch": 96721,
        "meta_bstar": 9.4278742e-05,
        "meta_mean_motion_dot": 6.2e-07,
        "meta_mean_motion_ddot": 0,
        "tle_line1": "1 15936U 85066B   25352.55782237  .00000062  00000+0  94279-4 0  9997",
        "tle_line2": "2 15936  90.1792  92.4083 0170390  74.1055 298.5962 13.35936524967219"
      },
      "geometry": {
        "type": "Point",
        "coordinates": [
          -88.37507934822086,
          -77.22565873036636
        ]
      }
    },
    {
      "type": "Feature",
      "properties": {
        "norad_id": 17070,
        "name": "POLAR BEAR",
        "group": "nnss",
        "lat": -76.05640200931408,
        "lon": 5.067390160857886,
        "alt_km": 1015.6582454399841,
        "timestamp": "2025-12-18T23:35:49.328755+00:00",
        "meta_object_name": "POLAR BEAR",
        "meta_object_id": "1986-088A",
        "meta_epoch": "2025-12-18T13:55:03.174240",
        "meta_mean_motion": 13.75251999,
        "meta_eccentricity": 0.00412315,
        "meta_inclination": 89.617,
        "meta_ra_of_asc_node": 183.5399,
        "meta_arg_of_pericenter": 102.4211,
        "meta_mean_anomaly": 317.865,
        "meta_ephemeris_type": 0,
        "meta_classification_type": "U",
        "meta_norad_cat_id": 17070,
        "meta_element_set_no": 999,
        "meta_rev_at_epoch": 96059,
        "meta_bstar": 0.00010445726,
        "meta_mean_motion_dot": 1.12e-06,
        "meta_mean_motion_ddot": 0,
        "tle_line1": "1 17070U 86088A   25352.57989785  .00000112  00000+0  10446-3 0  9991",
        "tle_line2": "2 17070  89.6170 183.5399 0041231 102.4211 317.8650 13.75251999960598"
      },
      "geometry": {
        "type": "Point",
        "coordinates": [
          5.067390160857886,
          -76.05640200931408
        ]
      }
    },
    {
      "type": "Feature",
      "properties": {
        "norad_id": 18361,
        "name": "OSCAR 27",
        "group": "nnss",
        "lat": -12.030657979581024,
        "lon": -100.5739147445228,
        "alt_km": 1020.4146719183236,
        "timestamp": "2025-12-18T23:35:49.328766+00:00",
        "meta_object_name": "OSCAR 27",
        "meta_object_id": "1987-080A",
        "meta_epoch": "2025-12-18T11:55:41.651040",
        "meta_mean_motion": 13.44907851,
        "meta_eccentricity": 0.01033686,
        "meta_inclination": 90.3742,
        "meta_ra_of_asc_node": 79.4877,
        "meta_arg_of_pericenter": 207.1802,
        "meta_mean_anomaly": 152.3914,
        "meta_ephemeris_type": 0,
        "meta_classification_type": "U",
        "meta_norad_cat_id": 18361,
        "meta_element_set_no": 999,
        "meta_rev_at_epoch": 87634,
        "meta_bstar": 0.00014659312,
        "meta_mean_motion_dot": 9.7e-07,
        "meta_mean_motion_ddot": 0,
        "tle_line1": "1 18361U 87080A   25352.49700985  .00000097  00000+0  14659-3 0  9994",
        "tle_line2": "2 18361  90.3742  79.4877 0103368 207.1802 152.3914 13.44907851876344"
      },
      "geometry": {
        "type": "Point",
        "coordinates": [
          -100.5739147445228,
          -12.030657979581024
        ]
      }
    },
    {
      "type": "Feature",
      "properties": {
        "norad_id": 18362,
        "name": "OSCAR 29",
        "group": "nnss",
        "lat": -13.525574618592078,
        "lon": -100.1250797603437,
        "alt_km": 1033.715105806251,
        "timestamp": "2025-12-18T23:35:49.328776+00:00",
        "meta_object_name": "OSCAR 29",
        "meta_object_id": "1987-080B",
        "meta_epoch": "2025-12-18T11:58:15.817152",
        "meta_mean_motion": 13.44449408,
        "meta_eccentricity": 0.01042531,
        "meta_inclination": 90.3753,
        "meta_ra_of_asc_node": 79.9471,
        "meta_arg_of_pericenter": 230.4547,
        "meta_mean_anomaly": 140.4549,
        "meta_ephemeris_type": 0,
        "meta_classification_type": "U",
        "meta_norad_cat_id": 18362,
        "meta_element_set_no": 999,
        "meta_rev_at_epoch": 87587,
        "meta_bstar": 0.00013027596,
        "meta_mean_motion_dot": 8.6e-07,
        "meta_mean_motion_ddot": 0,
        "tle_line1": "1 18362U 87080B   25352.49879418  .00000086  00000+0  13028-3 0  9990",
        "tle_line2": "2 18362  90.3753  79.9471 0104253 230.4547 140.4549 13.44449408875879"
      },
      "geometry": {
        "type": "Point",
        "coordinates": [
          -100.1250797603437,
          -13.525574618592078
        ]
      }
    },
    {
      "type": "Feature",
      "properties": {
        "norad_id": 19070,
        "name": "OSCAR 23",
        "group": "nnss",
        "lat": -43.634218472647156,
        "lon": 16.892143158905064,
        "alt_km": 1289.8155187126276,
        "timestamp": "2025-12-18T23:35:49.328787+00:00",
        "meta_object_name": "OSCAR 23",
        "meta_object_id": "1988-033A",
        "meta_epoch": "2025-12-18T13:48:21.612960",
        "meta_mean_motion": 13.27788153,
        "meta_eccentricity": 0.01900114,
        "meta_inclination": 90.3207,
        "meta_ra_of_asc_node": 16.5735,
        "meta_arg_of_pericenter": 163.7148,
        "meta_mean_anomaly": 2.8387,
        "meta_ephemeris_type": 0,
        "meta_classification_type": "U",
        "meta_norad_cat_id": 19070,
        "meta_element_set_no": 999,
        "meta_rev_at_epoch": 82330,
        "meta_bstar": 0.00020120685,
        "meta_mean_motion_dot": 1.09e-06,
        "meta_mean_motion_ddot": 0,
        "tle_line1": "1 19070U 88033A   25352.57525015  .00000109  00000+0  20121-3 0  9994",
        "tle_line2": "2 19070  90.3207  16.5735 0190011 163.7148   2.8387 13.27788153823308"
      },
      "geometry": {
        "type": "Point",
        "coordinates": [
          16.892143158905064,
          -43.634218472647156
        ]
      }
    }
  ]
}